FENGYUN 1C DEB          
1 33679U 99025DFQ 17345.49095289  .00001154  00000-0  17697-3 0  9993
2 33679  99.4129 358.4413 0330078  80.1949 283.6339 14.45419414516838
